     2.11           N: GPS NAV DATA                         RINEX VERSION / TYPE
CONVBIN 2.4.2                           20250403 134215 UTC PGM / RUN BY / DATE 
log: /home/berkay/Desktop/encoderProject/example.nav        COMMENT             
format: RINEX                                               COMMENT             
                                                            END OF HEADER       
31 25  3 31 22  0  0.0 -.211566686630E-03  .102318153950E-11  .000000000000E+00
     .500000000000E+02 -.416250000000E+02  .474091176372E-08  .127321280951E+01
    -.205263495445E-05  .105912979925E-01  .925734639168E-05  .515363759994E+04
     .165600000000E+06 -.150874257088E-06 -.325835353196E+00 -.298023223877E-07
     .954669516309E+00  .204062500000E+03  .809766722766E+00 -.817105464294E-08
    -.728244620026E-09  .100000000000E+01  .236000000000E+04  .000000000000E+00
     .240000000000E+01  .000000000000E+00 -.130385160446E-07  .500000000000E+02
     .158400000000E+06  .000000000000E+00
32 25  3 31 20  0  0.0 -.488642137498E-03  .909494701773E-11  .000000000000E+00
     .560000000000E+02  .150937500000E+02  .479234247744E-08 -.163631474267E+01
     .815838575363E-06  .854304013774E-02  .525638461113E-05  .515357981110E+04
     .158400000000E+06  .191852450371E-06 -.140585866681E+01  .111758708954E-07
     .964024991533E+00  .281062500000E+03 -.206975794346E+01 -.815212528303E-08
     .279654505876E-09  .100000000000E+01  .236000000000E+04  .000000000000E+00
     .240000000000E+01  .000000000000E+00  .931322574616E-09  .560000000000E+02
     .151200000000E+06  .000000000000E+00
27 25  4  1  2  0  0.0 -.286591239274E-04  .795807864051E-12  .000000000000E+00
     .850000000000E+02  .893750000000E+02  .490377569051E-08  .931448497677E+00
     .457279384136E-05  .134955442045E-01  .179186463356E-05  .515369092750E+04
     .180000000000E+06 -.152736902237E-06  .173459873894E+01  .409781932831E-07
     .957160839465E+00  .343000000000E+03  .837242199755E+00 -.879322341591E-08
     .132148361653E-09  .100000000000E+01  .236000000000E+04  .000000000000E+00
     .240000000000E+01  .000000000000E+00  .232830643654E-08  .850000000000E+02
     .172800000000E+06  .000000000000E+00
11 25  4  1  2  0  0.0 -.733890105039E-03  .443378667114E-11  .000000000000E+00
     .140000000000E+03 -.113812500000E+03  .444197074020E-08  .384224739588E-01
    -.600889325142E-05  .170613464434E-02  .601820647716E-05  .515364021492E+04
     .180000000000E+06 -.428408384323E-07  .283890970524E+01 -.316649675369E-07
     .965881073235E+00  .268531250000E+03 -.235949198069E+01 -.821105630917E-08
    -.266439669710E-09  .100000000000E+01  .236000000000E+04  .000000000000E+00
     .240000000000E+01  .000000000000E+00 -.884756445885E-08  .396000000000E+03
     .172800000000E+06  .000000000000E+00
16 25  4  1  2  0  0.0 -.176290050149E-04  .886757334229E-11  .000000000000E+00
     .660000000000E+02  .133843750000E+03  .424267672452E-08  .186871373172E+01
     .673346221447E-05  .144948967500E-01  .120550394058E-04  .515372291756E+04
     .180000000000E+06 -.279396772385E-06  .784718504824E+00 -.191852450371E-06
     .960100912742E+00  .147125000000E+03  .882947347627E+00 -.791854412486E-08
     .203579908492E-10  .100000000000E+01  .236000000000E+04  .000000000000E+00
     .240000000000E+01  .000000000000E+00 -.102445483208E-07  .660000000000E+02
     .172800000000E+06  .000000000000E+00
30 25  4  1  1 59 28.0 -.180852133781E-03  .920863385545E-11  .000000000000E+00
     .100000000000E+02 -.479375000000E+02  .514950021164E-08 -.214421502725E+01
    -.261515378952E-05  .758082896937E-02  .835396349430E-05  .515370676041E+04
     .179968000000E+06  .335276126862E-07 -.352729185661E+00 -.856816768646E-07
     .935943707001E+00  .203250000000E+03 -.240035838804E+01 -.820569894316E-08
    -.569309428309E-09  .100000000000E+01  .236000000000E+04  .000000000000E+00
     .240000000000E+01  .000000000000E+00  .372529029846E-08  .100000000000E+02
     .172800000000E+06  .000000000000E+00
 5 25  4  1  2  0  0.0 -.206057913601E-03 -.102318153950E-11  .000000000000E+00
     .125000000000E+03 -.412500000000E+02  .410195657724E-08  .117844578094E+01
    -.213272869587E-05  .565467379056E-02  .124033540487E-04  .515377894592E+04
     .180000000000E+06 -.128522515297E-06 -.249079063819E+01 -.409781932831E-07
     .975846108387E+00  .152187500000E+03  .132049378787E+01 -.775532304033E-08
     .360729311538E-09  .100000000000E+01  .236000000000E+04  .000000000000E+00
     .340000000000E+01  .000000000000E+00 -.107102096081E-07  .125000000000E+03
     .172800000000E+06  .000000000000E+00
22 25  4  1  2  0  0.0 -.101439189166E-03 -.795807864051E-12  .000000000000E+00
     .107000000000E+03  .104687500000E+03  .426017745349E-08  .136839167585E+01
     .544264912605E-05  .132058432791E-01  .109169632196E-04  .515366731262E+04
     .180000000000E+06  .311061739922E-06  .788031092635E+00 -.219792127609E-06
     .959480452612E+00  .165250000000E+03 -.106477395796E+01 -.786711341114E-08
     .131434046184E-09  .100000000000E+01  .236000000000E+04  .000000000000E+00
     .340000000000E+01  .000000000000E+00 -.111758708954E-07  .107000000000E+03
     .172800000000E+06  .000000000000E+00
 9 25  4  1  2  0  0.0  .617128331214E-03  .119371179608E-10  .000000000000E+00
     .440000000000E+02  .160000000000E+02  .490770442559E-08  .141053002025E+01
     .670552253723E-06  .300059292931E-02  .583007931709E-05  .515373023224E+04
     .180000000000E+06  .242143869400E-07 -.142185268288E+01 -.931322574616E-07
     .960788393539E+00  .263718750000E+03  .201913772000E+01 -.817641200895E-08
     .300012496725E-09  .100000000000E+01  .236000000000E+04  .000000000000E+00
     .240000000000E+01  .000000000000E+00  .465661287308E-09  .440000000000E+02
     .172800000000E+06  .000000000000E+00
 8 25  4  1  2  0  0.0  .503194984049E-03  .488853402203E-11  .000000000000E+00
     .820000000000E+02  .991562500000E+02  .500199406742E-08  .788317071176E+00
     .516511499882E-05  .105551518500E-01  .200234353542E-05  .515377426720E+04
     .180000000000E+06 -.614672899246E-07  .170545511110E+01  .141561031342E-06
     .948095753479E+00  .332531250000E+03  .446210413106E+00 -.876000774663E-08
     .199294015681E-09  .100000000000E+01  .236000000000E+04  .000000000000E+00
     .240000000000E+01  .000000000000E+00  .465661287308E-08  .820000000000E+02
     .172800000000E+06  .000000000000E+00
14 25  4  1  2  0  0.0  .623491127044E-03  .602540239925E-11  .000000000000E+00
     .500000000000E+02  .102750000000E+03  .445375694542E-08 -.278106619356E+01
     .535510480404E-05  .555489270482E-02  .117775052786E-04  .515372030449E+04
     .180000000000E+06 -.931322574616E-08  .717949424195E+00  .000000000000E+00
     .944173101034E+00  .145093750000E+03 -.284214385431E+01 -.789747181854E-08
     .871464871438E-10  .100000000000E+01  .236000000000E+04  .000000000000E+00
     .240000000000E+01  .000000000000E+00 -.791624188423E-08  .562000000000E+03
     .172800000000E+06  .000000000000E+00
 7 25  4  1  2  0  0.0 -.186637043953E-04 -.181898940355E-11  .000000000000E+00
     .520000000000E+02 -.379375000000E+02  .476055543910E-08 -.194611581444E+01
    -.204704701900E-05  .194523498649E-01  .806152820587E-05  .515372777176E+04
     .180000000000E+06  .283122062683E-06 -.348730322498E+00 -.128522515297E-06
     .950764130685E+00  .213968750000E+03 -.206242995127E+01 -.782246869436E-08
    -.547522806523E-09  .100000000000E+01  .236000000000E+04  .000000000000E+00
     .240000000000E+01  .000000000000E+00 -.107102096081E-07  .520000000000E+02
     .172800000000E+06  .000000000000E+00
20 25  4  1  2  0  0.0  .365311745554E-03 -.227373675443E-12  .000000000000E+00
     .340000000000E+02 -.594062500000E+02  .442661295763E-08 -.884933495912E+00
    -.302307307720E-05  .357581616845E-02  .116210430860E-04  .515374440384E+04
     .180000000000E+06  .223517417908E-07 -.262492776785E+01  .633299350738E-07
     .958072099914E+00  .155562500000E+03 -.227496807776E+01 -.790497213096E-08
     .270368404786E-09  .100000000000E+01  .236000000000E+04  .000000000000E+00
     .240000000000E+01  .000000000000E+00 -.838190317154E-08  .340000000000E+02
     .172800000000E+06  .000000000000E+00
 4 25  4  1  2  0  0.0  .547986477613E-03  .511590769747E-11  .000000000000E+00
     .209000000000E+03  .815625000000E+01  .485091634585E-08  .505046143119E+00
     .406056642532E-06  .324604508933E-02  .553764402866E-05  .515363337326E+04
     .180000000000E+06  .130385160446E-07 -.135997404669E+01 -.223517417908E-07
     .966928101259E+00  .271531250000E+03 -.289848634621E+01 -.819498421113E-08
     .202508435289E-09  .100000000000E+01  .236000000000E+04  .000000000000E+00
     .240000000000E+01  .000000000000E+00 -.465661287308E-08  .977000000000E+03
     .172800000000E+06  .000000000000E+00
 6 25  4  1  2  0  0.0 -.279191881418E-03 -.220552465180E-10  .000000000000E+00
     .510000000000E+02 -.115906250000E+03  .395230748661E-08 -.116735236635E+01
    -.630319118500E-05  .348571222276E-02  .606663525104E-05  .515354643631E+04
     .180000000000E+06 -.149011611938E-07  .281273345896E+01 -.102445483208E-06
     .989145836043E+00  .278718750000E+03 -.658295128612E+00 -.800104756146E-08
    -.219652006531E-09  .100000000000E+01  .236000000000E+04  .000000000000E+00
     .240000000000E+01  .000000000000E+00  .372529029846E-08  .510000000000E+02
     .172860000000E+06  .000000000000E+00
